OBJECT_NAME,OBJECT_ID,EPOCH,MEAN_MOTION,ECCENTRICITY,INCLINATION,RA_OF_ASC_NODE,ARG_OF_PERICENTER,MEAN_ANOMALY,EPHEMERIS_TYPE,CLASSIFICATION_TYPE,NORAD_CAT_ID,ELEMENT_SET_NO,REV_AT_EPOCH,BSTAR,MEAN_MOTION_DOT,MEAN_MOTION_DDOT
INTELSAT 23 (IS-23),2012-057A,2026-07-02T18:51:48.920832,1.00267174,.0000331,0.0141,7.2100,202.0482,301.4950,0,U,38867,999,5011,0,-.274E-5,0
FM-6,2013-058A,2026-07-02T16:51:02.863872,1.00271889,.000196,0.0160,40.7600,138.6453,237.7772,0,U,39360,999,4622,0,-.5E-7,0
INTELSAT 30 (IS-30),2014-062A,2026-07-02T13:31:51.138048,1.00277454,.0001444,0.0214,49.9436,357.0524,341.5175,0,U,40271,999,694,0,-.141E-5,0
DIRECTV 14,2014-078B,2026-07-02T10:05:17.774304,1.00271936,.0000293,0.0102,26.2148,2.4668,303.8682,0,U,40333,999,4219,0,-.115E-5,0
DIRECTV 15,2015-026A,2026-07-02T16:54:47.504736,1.00269039,.0000484,0.0175,66.4844,341.1134,23.9506,0,U,40663,999,4061,0,-.91E-6,0
SKY MEXICO-1,2015-026B,2026-07-02T13:36:28.195200,1.00273686,.000255,0.0178,34.8991,81.6332,289.3882,0,U,40664,999,4060,0,-.224E-5,0
INTELSAT 34 (IS-34),2015-039A,2026-07-02T13:42:57.573216,1.00269667,.0000469,0.0108,13.9056,22.0921,34.8455,0,U,40874,999,3978,0,-.275E-5,0
INTELSAT 31 (IS-31),2016-035A,2026-07-02T13:31:51.138048,1.00274605,.0000566,0.0275,259.9848,356.1386,132.3882,0,U,41581,999,3683,0,-.141E-5,0
INTELSAT 36 (IS-36),2016-053A,2026-07-02T19:50:53.670912,1.00270238,.0002007,0.0098,12.9079,336.4355,297.7405,0,U,41747,999,3611,0,-.13E-6,0
INTELSAT 32E (IS-32E),2017-007B,2026-07-02T10:21:16.242336,1.00263397,.0000954,0.0218,28.0694,325.1520,39.3916,0,U,41945,999,3437,0,0,0
INTELSAT 35E (IS-35E),2017-041A,2026-07-02T18:57:03.420288,1.00271294,.0001981,0.0227,35.9920,62.3412,72.2547,0,U,42818,999,3297,0,0,0
INTELSAT 37E (IS-37E),2017-059A,2026-07-02T19:01:47.964000,1.00272973,.0002837,0.0182,34.0408,68.0515,86.1828,0,U,42950,999,3222,0,-.13E-5,0
AZERSPACE 2 (IS-38),2018-074A,2026-07-02T19:19:43.771008,1.00276723,.0001885,0.0228,36.6472,74.6484,144.5913,0,U,43632,999,2860,0,0,0
HORIZONS-3E,2018-074B,2026-07-02T16:29:49.898112,1.00271230,.0000602,0.0166,197.9110,85.7941,53.4880,0,U,43633,999,2849,0,-.2E-6,0
AT&T T-16,2019-034A,2026-07-02T16:54:54.993024,1.00271130,.000063,0.0156,62.5128,281.1843,89.9134,0,U,44333,999,2578,0,-.104E-5,0
INTELSAT 39 (IS-39),2019-049B,2026-07-02T20:52:37.700256,1.00268633,.0000593,0.0212,29.7717,309.6573,316.5859,0,U,44476,999,2528,0,0,0
GALAXY 30 (G-30),2020-056C,2026-07-02T18:30:44.004096,1.00271803,.0002171,0.0211,28.9948,73.4623,331.0350,0,U,46114,999,2144,0,0,0
GALAXY 33 (G-33),2022-128A,2026-07-02T16:46:18.319296,1.00271772,.000225,0.0123,43.2438,55.0472,301.0264,0,U,54026,999,1389,0,.9E-6,0
GALAXY 34 (G-34),2022-128B,2026-07-02T20:24:26.440992,1.00268570,.0001956,0.0130,31.8533,68.7137,357.4298,0,U,54027,999,1407,0,.7E-6,0
GALAXY 31 (G-31),2022-153A,2026-07-02T16:49:40.496160,1.00272151,.0001557,0.0144,81.6881,17.8273,312.6321,0,U,54243,999,728,0,.24E-6,0
GALAXY 32 (G-32),2022-153B,2026-07-02T13:32:58.530048,1.00272409,.0001988,0.0105,15.3279,35.2758,342.2488,0,U,54244,999,1329,0,-.164E-5,0
GALAXY 35 (G-35),2022-170A,2026-07-02T13:32:21.090336,1.00272915,.0002307,0.0164,55.7529,46.1625,288.6647,0,U,54741,999,1304,0,-.152E-5,0
GALAXY 36 (G-36),2022-170B,2026-07-02T15:16:13.435104,1.00272523,.0002923,0.0039,81.1750,11.7961,327.7578,0,U,54742,999,1292,0,-.175E-5,0
GALAXY 37 (G-37),2023-112A,2026-07-02T18:30:36.514944,1.00270035,.0002049,0.0195,19.9544,87.2319,324.2746,0,U,57493,999,1069,0,0,0
